{
    "links": {
        "self": "http://www.neowsapp.com/rest/v1/neo/3151443?api_key=iIulBulltgU6a56xZRHN4H3l9WmuAYTsLGpBGhQ2"
    },
    "id": "3151443",
    "neo_reference_id": "3151443",
    "name": "(2003 EW59)",
    "designation": "2003 EW59",
    "nasa_jpl_url": "http://ssd.jpl.nasa.gov/sbdb.cgi?sstr=3151443",
    "absolute_magnitude_h": 23.3,
    "estimated_diameter": {
        "kilometers": {
            "estimated_diameter_min": 0.058150704,
            "estimated_diameter_max": 0.130028927
        },
        "meters": {
            "estimated_diameter_min": 58.1507039646,
            "estimated_diameter_max": 130.0289270043
        },
        "miles": {
            "estimated_diameter_min": 0.0361331611,
            "estimated_diameter_max": 0.0807962044
        },
        "feet": {
            "estimated_diameter_min": 190.7831555951,
            "estimated_diameter_max": 426.6041048727
        }
    },
    "is_potentially_hazardous_asteroid": false,
    "close_approach_data": [
        {
            "close_approach_date": "2003-03-12",
            "close_approach_date_full": "2003-Mar-12 10:48",
            "epoch_date_close_approach": 1047466080000,
            "relative_velocity": {
                "kilometers_per_second": "18.7092672551",
                "kilometers_per_hour": "67353.3621182675",
                "miles_per_hour": "41850.7599228757"
            },
            "miss_distance": {
                "astronomical": "0.0318071219",
                "lunar": "12.3729704191",
                "kilometers": "4758277.687070353",
                "miles": "2956656.6527547514"
            },
            "orbiting_body": "Earth"
        }
    ],
    "orbital_data": {
        "orbit_id": "12",
        "orbit_determination_date": "2017-04-06 09:14:16",
        "first_observation_date": "2003-03-13",
        "last_observation_date": "2003-03-26",
        "data_arc_in_days": 13,
        "observations_used": 48,
        "orbit_uncertainty": "8",
        "minimum_orbit_intersection": ".0132508",
        "jupiter_tisserand_invariant": "3.636",
        "epoch_osculation": "2452717.5",
        "eccentricity": ".6754659746196884",
        "semi_major_axis": "1.891611333874797",
        "inclination": "5.435489627514845",
        "ascending_node_longitude": "165.2616793508885",
        "orbital_period": "950.2684011574099",
        "perihelion_distance": ".6138922406374085",
        "perihelion_argument": "281.1222950044278",
        "aphelion_distance": "3.169330427112186",
        "perihelion_time": "2452664.201124138876",
        "mean_anomaly": "20.19176401807583",
        "mean_motion": ".3788403355952134",
        "equinox": "J2000",
        "orbit_class": {
            "orbit_class_type": "APO",
            "orbit_class_description": "Near-Earth asteroid orbits which cross the Earth’s orbit similar to that of 1862 Apollo",
            "orbit_class_range": "a (semi-major axis) > 1.0 AU; q (perihelion) < 1.017 AU"
        }
    },
    "is_sentry_object": false
}